{
    "links": {
        "self": "http://www.neowsapp.com/rest/v1/neo/3627009?api_key=iIulBulltgU6a56xZRHN4H3l9WmuAYTsLGpBGhQ2"
    },
    "id": "3627009",
    "neo_reference_id": "3627009",
    "name": "(2013 CK129)",
    "designation": "2013 CK129",
    "nasa_jpl_url": "http://ssd.jpl.nasa.gov/sbdb.cgi?sstr=3627009",
    "absolute_magnitude_h": 22.1,
    "estimated_diameter": {
        "kilometers": {
            "estimated_diameter_min": 0.1010543415,
            "estimated_diameter_max": 0.2259643771
        },
        "meters": {
            "estimated_diameter_min": 101.054341542,
            "estimated_diameter_max": 225.9643771094
        },
        "miles": {
            "estimated_diameter_min": 0.0627922373,
            "estimated_diameter_max": 0.140407711
        },
        "feet": {
            "estimated_diameter_min": 331.5431259047,
            "estimated_diameter_max": 741.3529669956
        }
    },
    "is_potentially_hazardous_asteroid": false,
    "close_approach_data": [
        {
            "close_approach_date": "1934-10-22",
            "close_approach_date_full": "1934-Oct-22 17:12",
            "epoch_date_close_approach": -1110610080000,
            "relative_velocity": {
                "kilometers_per_second": "17.3784314017",
                "kilometers_per_hour": "62562.3530460041",
                "miles_per_hour": "38873.8132023907"
            },
            "miss_distance": {
                "astronomical": "0.2678769359",
                "lunar": "104.2041280651",
                "kilometers": "40073819.032766533",
                "miles": "24900716.4853948354"
            },
            "orbiting_body": "Earth"
        },
        {
            "close_approach_date": "2013-01-03",
            "close_approach_date_full": "2013-Jan-03 12:19",
            "epoch_date_close_approach": 1357215540000,
            "relative_velocity": {
                "kilometers_per_second": "9.2733834633",
                "kilometers_per_hour": "33384.1804679228",
                "miles_per_hour": "20743.6314690823"
            },
            "miss_distance": {
                "astronomical": "0.0730802734",
                "lunar": "28.4282263526",
                "kilometers": "10932653.239657658",
                "miles": "6793235.7165973604"
            },
            "orbiting_body": "Earth"
        },
        {
            "close_approach_date": "2090-10-11",
            "close_approach_date_full": "2090-Oct-11 04:31",
            "epoch_date_close_approach": 3811379460000,
            "relative_velocity": {
                "kilometers_per_second": "24.3538311607",
                "kilometers_per_hour": "87673.7921785736",
                "miles_per_hour": "54477.0849234032"
            },
            "miss_distance": {
                "astronomical": "0.4835176426",
                "lunar": "188.0883629714",
                "kilometers": "72333209.440381262",
                "miles": "44945772.1831029356"
            },
            "orbiting_body": "Earth"
        }
    ],
    "orbital_data": {
        "orbit_id": "12",
        "orbit_determination_date": "2017-04-06 08:46:46",
        "first_observation_date": "2013-02-14",
        "last_observation_date": "2013-03-05",
        "data_arc_in_days": 19,
        "observations_used": 51,
        "orbit_uncertainty": "7",
        "minimum_orbit_intersection": ".0328203",
        "jupiter_tisserand_invariant": "3.243",
        "epoch_osculation": "2459000.5",
        "eccentricity": ".6089123784688293",
        "semi_major_axis": "2.392276352785789",
        "inclination": "6.784505698177247",
        "ascending_node_longitude": "315.1063842893435",
        "orbital_period": "1351.498126279465",
        "perihelion_distance": ".9355896688562583",
        "perihelion_argument": "131.9141753071377",
        "aphelion_distance": "3.84896303671532",
        "perihelion_time": "2458990.334248615479",
        "mean_anomaly": "2.707862058604682",
        "mean_motion": ".266371068520119",
        "equinox": "J2000",
        "orbit_class": {
            "orbit_class_type": "APO",
            "orbit_class_description": "Near-Earth asteroid orbits which cross the Earth’s orbit similar to that of 1862 Apollo",
            "orbit_class_range": "a (semi-major axis) > 1.0 AU; q (perihelion) < 1.017 AU"
        }
    },
    "is_sentry_object": false
}